SPACEMOBILE-006         
1 67232U 25309A   26119.59823156  .00002714  00000+0  14603-3 0  9997
2 67232  52.9937 194.1371 0010548 349.3650  10.7119 15.18286850 19217
